#dP2022  8  9 18  0  0.00000000      96 __u+U ITR00 EXT  IAC
## 2222 237600.00000000   900.00000000 59800 0.7500000000000
+  116   C06C07C08C09C10C11C12C13C14C16C19C20C21C22C23C24C25
+        C26C27C28C29C30C32C33C34C35C36C37C38C39C40C41C42C43
+        C44C45C46E01E02E03E04E05E07E08E09E10E11E12E13E14E15
+        E18E19E21E24E25E26E27E30E31E33E34E36G01G02G03G04G05
+        G06G07G08G09G10G11G12G13G14G15G16G17G18G19G20G21G22
+        G23G24G25G26G27G28G29G30G31G32J02J03R01R02R03R04R05
+        R07R08R09R11R12R13R14R15R17R18R19R20R21R24  0  0  0
++         9 11  6  9 10 10  9  7  9  8 10 10  7  8  9  9  8
++         8  8  9  7  9  7 10  8  8  8  9 10 10 11  9  9  8
++         8  7  8  9  7  9  8  9  7  7  7  8  8  8  8  7  8
++         8  9  6  7  8  7  8  8  9  9  7  8  8  7  7  7  8
++         7  8  7  9  9  8  8  8  7  7  7  7  6  8  7  8  7
++         7  9  7  8  7  9  9  7  7  7  9 10  9 11  7  8  9
++         9  9  9  8  9  9  8  9  7  9  9  8  8  7  0  0  0
%c M  cc GPS ccc cccc cccc cccc cccc ccccc ccccc ccccc ccccc
%c cc cc ccc ccc cccc cccc cccc cccc ccccc ccccc ccccc ccccc
%f  0.0000000  0.000000000  0.00000000000  0.000000000000000
%f  0.0000000  0.000000000  0.00000000000  0.000000000000000
%i    0    0    0    0      0      0      0      0         0
%i    0    0    0    0      0      0      0      0         0
/* IAC                                ULTRA-RAPID PREDICTION
/* S/V CLOCKS ARE ALIGNED TO GNSS TIME                      
/* G:C1WC2W R:C1PC2P E:C1XC5X C:C2IC6I J:C1CC2S             
/* PCV:IGS14_2218 OL/AL:FES2004  NONE     YN ORB:CoN CLK:CoN
*  2022 08 09 18  0  0.00000000
PC06 -17360.256912  36446.336385  11751.291532    575.152269
PC07  -2616.819485  35192.875217  23228.916758   -543.368994
PC08 -10054.536786  19605.446170 -35978.898052    435.305110
PC09 -11229.148516  35382.318109  19879.619058   -900.602564
PC10   3458.763073  37971.809501  18825.765341    110.321792
PC11   2027.568402  19938.743208 -19374.834414   -479.363910
PC12 -12131.847277  24654.690490  -4909.835409   -555.140453
PC13  -3318.084786  22004.065066 -35701.918275     48.039205
PC14  12292.550674  25044.347376  -1471.915321    582.669663
PC16 -19354.400391  36195.223125   9174.889639    142.854674
PC19 -17125.975380 -20569.766942  -7836.799469   -393.649887
PC20  -6684.742354 -25537.302086   9010.301329      7.028163
PC21  -8520.041920  15478.243839 -21595.117069   -153.073487
PC22 -18119.838340  -3458.976150 -20935.384457   -102.869273
PC23  27885.307957    317.344115  -1002.746211   -960.451582
PC24   -263.530727  16310.907200  22640.114404   -968.362796
PC25  20934.483678  10927.311185  14850.368923   -695.316193
PC26 -18339.721811  12118.470610  17203.875072    697.510862
PC27  17046.440910 -21788.987865  -3720.775017      2.755014
PC28  19756.370297  -7339.229378 -18287.791174     99.823987
PC29 -11135.858396 -12009.633968  22583.856048    593.133834
PC30   4181.335195 -24495.370519  12703.964222    501.952163
PC32   8501.776585 -15449.674377  21635.603196   -478.688634
PC33  17242.952975  20536.803276   7759.882041   -370.268880
PC34  -3278.547434  24150.491801 -13591.892383   -339.896536
PC35 -19326.279877   6699.095449  18959.192557    404.782343
PC36 -20257.693733 -11654.623523 -15220.634695   -969.260187
PC37  19624.001863 -11101.167862 -16408.964968   -929.668207
PC38 -18598.244224  19909.230297 -32215.762322     16.020516
PC39 -21319.312711  36149.625447   2698.857224     -0.215901
PC40  -6087.556859  31599.494543  27344.761307     -2.019012
PC41  18326.532082   3939.244746  20721.259684   -152.369793
PC42   5919.169314  25395.181620  -9930.689815    -85.822534
PC43  10699.241920  12780.462611 -22390.797124      7.709018
PC44 -16330.980300  22278.406639   3853.041940     12.261004
PC45 -27884.338750    -71.801836   1366.048180    830.784973
PC46  -1757.005343 -16205.305930 -22642.708277   -477.635845
PE01  15269.353624  -9346.828489 -23563.285539   -531.544510
PE02 -15124.780717   9482.988242  23618.810876    317.319577
PE03 -12338.129910  21280.870719 -16476.445993   -587.757610
PE04    625.022492 -29586.938801   -562.381641  -1089.877759
PE05 -17049.418344    259.034954 -24193.000037   -155.061086
PE07  11778.854200  20579.441402  17730.861832   -695.109726
PE08   -436.353324  29595.907015    713.354483   -578.378891
PE09 -11712.197425 -20557.997503 -17774.154086   -617.183191
PE10  -4346.664252 -15749.203267  24666.710037   -506.328319
PE11 -14943.041908  -9455.997361  23718.713164   2697.209110
PE12   6282.293640 -19275.144411  21561.283127   -106.477814
PE13  14236.602214   9895.889983 -23994.633651    430.178891
PE14   9068.821848  26207.576887 -16776.738504  -1754.350616
PE15  -6445.151629  19271.995301 -21525.581855    727.931907
PE18  -5683.495174 -19651.752214  11606.717390  -1114.551896
PE19  13408.258425 -19057.309923  18260.614498  -4855.601335
PE21  25898.071411   5671.199067 -13158.690072   -750.855118
PE24 -21733.669639 -19039.345035  -6479.147721   -771.677505
PE25 -25967.903982  -5888.457129  12943.515042   -583.986969
PE26  26650.305061  -5753.252654 -11518.621553  -1475.732683
PE27  22435.616665  18513.273990   5479.050280   -364.484762
PE30   4789.670277  20174.804651  21118.931757   -741.101574
PE31  -5827.561359 -20334.315146 -20691.061600   -501.382294
PE33  23212.623714 -17225.992380   6370.948932   -453.970275
PE34 -23073.660263  17356.185035  -6572.124041   -490.109902
PE36 -26387.010014   5210.787796  12354.213410   -414.367203
PG01  -1865.433669  15912.981595 -21423.547620    305.170857
PG02  16730.790613 -17537.394495  11713.325152   -649.531533
PG03   6873.069730  19631.541563 -16701.947494   -328.018158
PG04   -996.174227  26044.687172   4857.297917   -135.214614
PG05   6397.111650 -13873.367058  21542.878671    -92.273002
PG06  25196.835843  -5704.557641  -6279.220554    418.796778
PG07  14915.310987   9620.455914  20314.091521    315.460568
PG08  -5507.931127  25500.772376   3788.905014    -79.776827
PG09   7956.758782  20707.003863  14509.918055   -310.031424
PG10 -23022.872555 -10202.494911  -8765.229708   -522.158319
PG11  22750.934096 -12314.628719   5940.666496    -10.850677
PG12  -3497.224349 -19613.681542 -17882.322238   -259.701341
PG13  13093.971702 -20408.661494  10462.792116    364.753824
PG14  22605.660557  11843.432503  -7547.809912   -109.846354
PG15   2493.435866 -26020.254195   3227.376252    -38.615509
PG16 -12960.759252   8135.484931  21479.284313   -519.721405
PG17  13565.828050   6164.378375 -21548.461041    646.581782
PG18 -14889.404826  -8950.064131  20118.370731     87.062539
PG19  15733.717532  -4045.932425 -21212.461800    194.987465
PG20  17608.683085  -5981.401872  18882.503814    496.171868
PG21 -10951.825352  17702.357683 -15442.445284    160.619845
PG22 -15663.360489   7487.759226 -19632.387793    306.974121
PG23 -21011.116916 -16311.933097   1178.230220    -36.310158
PG24   5061.197695 -18198.741179 -18821.237402    173.279326
PG25 -15720.995373 -19806.793319  -8847.366894    358.957560
PG26 -20205.141833   1547.533591  17242.568387    222.828758
PG27 -12406.520669  18051.254481  14522.932660    219.924413
PG28  20805.305389   5305.355378 -14969.931345    339.957800
PG29  -5624.058025 -21249.904977  14800.797084   -541.329549
PG30  22797.814108   1963.366039  13788.312033   -535.612338
PG31 -25641.394313   6890.075834  -3879.266301   -189.025409
PG32 -14948.417271  -2784.502715 -21631.792320   -199.272965
PJ02 -27677.295309  20637.225989  29224.778873     -2.892649
PJ03 -33520.559776  25691.155468   5858.685183     -0.542291
PR01  11010.321490  21961.118992   6891.883482     12.858399
PR02  12464.904323   6478.294457  21316.215189    526.449816
PR03   6868.011274 -12012.232525  21484.375238     61.560797
PR04  -2468.183033 -23431.333621   9815.306553    153.340924
PR05 -10354.810090 -22157.749744  -7279.585935     97.647497
PR07  -6509.446379  12628.143042 -21136.716563     39.116626
PR08   2640.752025  23467.309366  -9553.224884    -66.627954
PR09 -25077.522488  -3750.891069   2389.156658     70.332890
PR11  -1054.524581  10934.184139  23036.916714     30.882131
PR12  17727.339313  11001.737398  14697.924734     19.855934
PR13  25068.064249   4635.627602   -932.583238    -25.531789
PR14  17666.692164  -5050.577045 -17684.449814     24.570637
PR15    168.927186 -11214.446252 -22883.131310     94.280247
PR17  18363.243427 -17218.673363  -3965.221965    550.934672
PR18  10622.902016 -19534.447352  12547.422598     36.713380
PR19  -1438.292117 -12519.273377  22169.353410   -199.409459
PR20 -16079.886995   3975.819681  19387.072605    -76.217642
PR21 -18120.246055  17820.332211   2381.806612   -324.232159
PR24  16557.080174  -4736.006584 -18797.214494    108.029880
EOF
